start=new Date('2021-11-19T00:00:00.000Z').valueOf();
sats=[{"MEAN_ELEMENT_THEORY":"SGP4","PERIAPSIS":"357.229","MEAN_ANOMALY":"236.4406","CLASSIFICATION_TYPE":"U","RCS_SIZE":"LARGE","TLE_LINE2":"2 49139  69.9975 301.9477 0003524 284.5865 236.4406 15.69753747  3705","MEAN_MOTION_DDOT":"0.0000000000000","CENTER_NAME":"EARTH","BSTAR":"0.00026500000000","ECCENTRICITY":"0.00035240","OBJECT_NAME":"STARLINK-3057","ARG_OF_PERICENTER":"284.5865","EPHEMERIS_TYPE":"0","LAUNCH_DATE":"2021-09-14","SEMIMAJOR_AXIS":"6737.739","PERIOD":"91.734","TLE_LINE1":"1 49139U 21082K   21322.91667824  .00031548  00000-0  26500-3 0  9999","REF_FRAME":"TEME","RA_OF_ASC_NODE":"301.9477","MEAN_MOTION":"15.69753747","ELEMENT_SET_NO":"999","INCLINATION":"69.9975","OBJECT_ID":"2021-082K","EPOCH":"2021-11-18T22:00:00.999936","DECAY_DATE":null,"APOAPSIS":"361.978","NORAD_CAT_ID":"49139","GP_ID":"190040839","REV_AT_EPOCH":"370","TIME_SYSTEM":"UTC","SITE":"AFWTR","OBJECT_TYPE":"PAYLOAD","FILE":"3218669","MEAN_MOTION_DOT":"0.00031548","COUNTRY_CODE":"US"},{"MEAN_MOTION_DOT":"-0.00004330","COUNTRY_CODE":"US","SITE":"AFWTR","TIME_SYSTEM":"UTC","FILE":"3218669","OBJECT_TYPE":"PAYLOAD","REV_AT_EPOCH":"370","EPOCH":"2021-11-18T22:00:00.999936","GP_ID":"190041146","NORAD_CAT_ID":"49140","APOAPSIS":"362.068","DECAY_DATE":null,"RA_OF_ASC_NODE":"301.9405","MEAN_MOTION":"15.69749470","REF_FRAME":"TEME","TLE_LINE1":"1 49140U 21082L   21322.91667824 -.00004330  00000-0 -34510-4 0  9993","PERIOD":"91.734","SEMIMAJOR_AXIS":"6737.751","INCLINATION":"69.9999","OBJECT_ID":"2021-082L","ELEMENT_SET_NO":"999","ECCENTRICITY":"0.00036390","OBJECT_NAME":"STARLINK-3118","BSTAR":"-0.00003451000000","CENTER_NAME":"EARTH","MEAN_MOTION_DDOT":"0.0000000000000","LAUNCH_DATE":"2021-09-14","EPHEMERIS_TYPE":"0","ARG_OF_PERICENTER":"289.6892","CLASSIFICATION_TYPE":"U","TLE_LINE2":"2 49140  69.9999 301.9405 0003639 289.6892 237.5445 15.69749470  3700","RCS_SIZE":"LARGE","MEAN_ELEMENT_THEORY":"SGP4","PERIAPSIS":"357.164","MEAN_ANOMALY":"237.5445"},{"EPOCH":"2021-11-18T22:00:00.999936","DECAY_DATE":null,"APOAPSIS":"399.421","GP_ID":"190040400","NORAD_CAT_ID":"49141","REV_AT_EPOCH":"370","TIME_SYSTEM":"UTC","SITE":"AFWTR","FILE":"3218669","OBJECT_TYPE":"PAYLOAD","MEAN_MOTION_DOT":"-0.00656926","COUNTRY_CODE":"US","MEAN_ELEMENT_THEORY":"SGP4","PERIAPSIS":"394.694","MEAN_ANOMALY":"29.8653","CLASSIFICATION_TYPE":"U","TLE_LINE2":"2 49141  70.0002 302.2232 0003488 278.6451  29.8653 15.56755180  3706","RCS_SIZE":"LARGE","CENTER_NAME":"EARTH","MEAN_MOTION_DDOT":"0.0000000000000","ECCENTRICITY":"0.00034880","OBJECT_NAME":"STARLINK-3093","BSTAR":"-0.00991550000000","ARG_OF_PERICENTER":"278.6451","EPHEMERIS_TYPE":"0","LAUNCH_DATE":"2021-09-14","REF_FRAME":"TEME","TLE_LINE1":"1 49141U 21082M   21322.91667824 -.00656926  00000-0 -99155-2 0  9992","PERIOD":"92.500","SEMIMAJOR_AXIS":"6775.192","RA_OF_ASC_NODE":"302.2232","MEAN_MOTION":"15.56755180","ELEMENT_SET_NO":"999","OBJECT_ID":"2021-082M","INCLINATION":"70.0002"},{"PERIAPSIS":"357.174","MEAN_ANOMALY":"241.8712","MEAN_ELEMENT_THEORY":"SGP4","TLE_LINE2":"2 49142  69.9988 301.9440 0003653 287.6471 241.8712 15.69742558  3701","RCS_SIZE":"LARGE","CLASSIFICATION_TYPE":"U","ARG_OF_PERICENTER":"287.6471","LAUNCH_DATE":"2021-09-14","EPHEMERIS_TYPE":"0","CENTER_NAME":"EARTH","MEAN_MOTION_DDOT":"0.0000000000000","ECCENTRICITY":"0.00036530","OBJECT_NAME":"STARLINK-3042","BSTAR":"0.00041429000000","ELEMENT_SET_NO":"999","INCLINATION":"69.9988","OBJECT_ID":"2021-082N","TLE_LINE1":"1 49142U 21082N   21322.91667824  .00049525  00000-0  41429-3 0  9994","REF_FRAME":"TEME","PERIOD":"91.735","SEMIMAJOR_AXIS":"6737.771","RA_OF_ASC_NODE":"301.9440","MEAN_MOTION":"15.69742558","APOAPSIS":"362.097","DECAY_DATE":null,"GP_ID":"190041271","NORAD_CAT_ID":"49142","EPOCH":"2021-11-18T22:00:00.999936","REV_AT_EPOCH":"370","FILE":"3218669","OBJECT_TYPE":"PAYLOAD","TIME_SYSTEM":"UTC","SITE":"AFWTR","COUNTRY_CODE":"US","MEAN_MOTION_DOT":"0.00049525"},{"CLASSIFICATION_TYPE":"U","TLE_LINE2":"2 49143  69.9989 301.9422 0003839 284.4018 247.2573 15.69733076  3701","RCS_SIZE":"LARGE","MEAN_ELEMENT_THEORY":"SGP4","PERIAPSIS":"357.076","MEAN_ANOMALY":"247.2573","MEAN_MOTION":"15.69733076","RA_OF_ASC_NODE":"301.9422","TLE_LINE1":"1 49143U 21082P   21322.91667824  .00048488  00000-0  40584-3 0  9993","PERIOD":"91.735","REF_FRAME":"TEME","SEMIMAJOR_AXIS":"6737.798","OBJECT_ID":"2021-082P","INCLINATION":"69.9989","ELEMENT_SET_NO":"999","ECCENTRICITY":"0.00038390","OBJECT_NAME":"STARLINK-3109","BSTAR":"0.00040584000000","CENTER_NAME":"EARTH","MEAN_MOTION_DDOT":"0.0000000000000","EPHEMERIS_TYPE":"0","LAUNCH_DATE":"2021-09-14","ARG_OF_PERICENTER":"284.4018","REV_AT_EPOCH":"370","EPOCH":"2021-11-18T22:00:00.999936","GP_ID":"190040525","NORAD_CAT_ID":"49143","DECAY_DATE":null,"APOAPSIS":"362.249","MEAN_MOTION_DOT":"0.00048488","COUNTRY_CODE":"US","SITE":"AFWTR","TIME_SYSTEM":"UTC","FILE":"3218669","OBJECT_TYPE":"PAYLOAD"},{"RCS_SIZE":"LARGE","TLE_LINE2":"2 49144  70.0002 302.2136 0003500 277.8012  43.3782 15.56816320  3709","CLASSIFICATION_TYPE":"U","MEAN_ANOMALY":"43.3782","PERIAPSIS":"394.509","MEAN_ELEMENT_THEORY":"SGP4","ELEMENT_SET_NO":"999","INCLINATION":"70.0002","OBJECT_ID":"2021-082Q","SEMIMAJOR_AXIS":"6775.015","PERIOD":"92.496","TLE_LINE1":"1 49144U 21082Q   21322.91667824 -.00656746  00000-0 -98899-2 0  9999","REF_FRAME":"TEME","MEAN_MOTION":"15.56816320","RA_OF_ASC_NODE":"302.2136","ARG_OF_PERICENTER":"277.8012","LAUNCH_DATE":"2021-09-14","EPHEMERIS_TYPE":"0","MEAN_MOTION_DDOT":"0.0000000000000","CENTER_NAME":"EARTH","BSTAR":"-0.00988990000000","ECCENTRICITY":"0.00035000","OBJECT_NAME":"STARLINK-3100","REV_AT_EPOCH":"370","DECAY_DATE":null,"APOAPSIS":"399.251","NORAD_CAT_ID":"49144","GP_ID":"190040966","EPOCH":"2021-11-18T22:00:00.999936","COUNTRY_CODE":"US","MEAN_MOTION_DOT":"-0.00656746","OBJECT_TYPE":"PAYLOAD","FILE":"3218669","TIME_SYSTEM":"UTC","SITE":"AFWTR"},{"NORAD_CAT_ID":"49145","GP_ID":"190040716","APOAPSIS":"362.036","DECAY_DATE":null,"EPOCH":"2021-11-18T22:00:00.999936","REV_AT_EPOCH":"370","OBJECT_TYPE":"PAYLOAD","FILE":"3218669","SITE":"AFWTR","TIME_SYSTEM":"UTC","COUNTRY_CODE":"US","MEAN_MOTION_DOT":"0.00072205","PERIAPSIS":"357.272","MEAN_ANOMALY":"255.5327","MEAN_ELEMENT_THEORY":"SGP4","RCS_SIZE":"LARGE","TLE_LINE2":"2 49145  69.9971 301.9240 0003535 284.3615 255.5327 15.69736159  3701","CLASSIFICATION_TYPE":"U","EPHEMERIS_TYPE":"0","LAUNCH_DATE":"2021-09-14","ARG_OF_PERICENTER":"284.3615","BSTAR":"0.00060174000000","ECCENTRICITY":"0.00035350","OBJECT_NAME":"STARLINK-3119","MEAN_MOTION_DDOT":"0.0000000000000","CENTER_NAME":"EARTH","OBJECT_ID":"2021-082R","INCLINATION":"69.9971","ELEMENT_SET_NO":"999","MEAN_MOTION":"15.69736159","RA_OF_ASC_NODE":"301.9240","SEMIMAJOR_AXIS":"6737.789","TLE_LINE1":"1 49145U 21082R   21322.91667824  .00072205  00000-0  60174-3 0  9996","PERIOD":"91.735","REF_FRAME":"TEME"},{"PERIAPSIS":"357.286","MEAN_ANOMALY":"253.2272","MEAN_ELEMENT_THEORY":"SGP4","RCS_SIZE":"LARGE","TLE_LINE2":"2 49146  69.9984 301.9317 0003472 284.8179 253.2272 15.69746238  3704","CLASSIFICATION_TYPE":"U","LAUNCH_DATE":"2021-09-14","EPHEMERIS_TYPE":"0","ARG_OF_PERICENTER":"284.8179","BSTAR":"0.00040402000000","OBJECT_NAME":"STARLINK-3116","ECCENTRICITY":"0.00034720","MEAN_MOTION_DDOT":"0.0000000000000","CENTER_NAME":"EARTH","INCLINATION":"69.9984","OBJECT_ID":"2021-082S","ELEMENT_SET_NO":"999","RA_OF_ASC_NODE":"301.9317","MEAN_MOTION":"15.69746238","SEMIMAJOR_AXIS":"6737.760","TLE_LINE1":"1 49146U 21082S   21322.91667824  .00048291  00000-0  40402-3 0  9997","PERIOD":"91.735","REF_FRAME":"TEME","NORAD_CAT_ID":"49146","GP_ID":"190041090","DECAY_DATE":null,"APOAPSIS":"361.964","EPOCH":"2021-11-18T22:00:00.999936","REV_AT_EPOCH":"370","OBJECT_TYPE":"PAYLOAD","FILE":"3218669","SITE":"AFWTR","TIME_SYSTEM":"UTC","COUNTRY_CODE":"US","MEAN_MOTION_DOT":"0.00048291"},{"GP_ID":"190040840","NORAD_CAT_ID":"49147","DECAY_DATE":null,"APOAPSIS":"362.097","EPOCH":"2021-11-18T22:00:00.999936","REV_AT_EPOCH":"370","FILE":"3218669","OBJECT_TYPE":"PAYLOAD","SITE":"AFWTR","TIME_SYSTEM":"UTC","COUNTRY_CODE":"US","MEAN_MOTION_DOT":"0.00049550","PERIAPSIS":"357.242","MEAN_ANOMALY":"248.5630","MEAN_ELEMENT_THEORY":"SGP4","TLE_LINE2":"2 49147  69.9972 301.9337 0003603 285.1833 248.5630 15.69730607  3709","RCS_SIZE":"LARGE","CLASSIFICATION_TYPE":"U","EPHEMERIS_TYPE":"0","LAUNCH_DATE":"2021-09-14","ARG_OF_PERICENTER":"285.1833","ECCENTRICITY":"0.00036030","OBJECT_NAME":"STARLINK-3071","BSTAR":"0.00041470000000","CENTER_NAME":"EARTH","MEAN_MOTION_DDOT":"0.0000000000000","OBJECT_ID":"2021-082T","INCLINATION":"69.9972","ELEMENT_SET_NO":"999","RA_OF_ASC_NODE":"301.9337","MEAN_MOTION":"15.69730607","REF_FRAME":"TEME","TLE_LINE1":"1 49147U 21082T   21322.91667824  .00049550  00000-0  41470-3 0  9993","PERIOD":"91.735","SEMIMAJOR_AXIS":"6737.805"},{"SEMIMAJOR_AXIS":"6737.734","PERIOD":"91.734","TLE_LINE1":"1 49148U 21082U   21322.91667824  .00028986  00000-0  24368-3 0  9991","REF_FRAME":"TEME","MEAN_MOTION":"15.69755182","RA_OF_ASC_NODE":"301.9261","ELEMENT_SET_NO":"999","INCLINATION":"69.9985","OBJECT_ID":"2021-082U","MEAN_MOTION_DDOT":"0.0000000000000","CENTER_NAME":"EARTH","BSTAR":"0.00024368000000","ECCENTRICITY":"0.00035560","OBJECT_NAME":"STARLINK-3048","ARG_OF_PERICENTER":"284.7093","LAUNCH_DATE":"2021-09-14","EPHEMERIS_TYPE":"0","CLASSIFICATION_TYPE":"U","RCS_SIZE":"LARGE","TLE_LINE2":"2 49148  69.9985 301.9261 0003556 284.7093 259.7055 15.69755182  3700","MEAN_ELEMENT_THEORY":"SGP4","PERIAPSIS":"357.204","MEAN_ANOMALY":"259.7055","MEAN_MOTION_DOT":"0.00028986","COUNTRY_CODE":"US","TIME_SYSTEM":"UTC","SITE":"AFWTR","OBJECT_TYPE":"PAYLOAD","FILE":"3218669","REV_AT_EPOCH":"370","EPOCH":"2021-11-18T22:00:00.999936","DECAY_DATE":null,"APOAPSIS":"361.995","NORAD_CAT_ID":"49148","GP_ID":"190041147"}];
